start=new Date('2023-01-29T00:00:00.000Z').valueOf();
sats=[{"APOAPSIS":"548.066","TLE_LINE1":"1 46152U 20057AM  23028.75189597  .00001247  00000-0  10261-3 0  9995","MEAN_MOTION_DDOT":"0.0000000000000","INCLINATION":"53.0551","OBJECT_ID":"2020-057AM","CLASSIFICATION_TYPE":"U","PERIOD":"95.592","RCS_SIZE":"LARGE","TIME_SYSTEM":"UTC","SEMIMAJOR_AXIS":"6925.355","MEAN_ANOMALY":"267.5326","ARG_OF_PERICENTER":"92.5803","MEAN_ELEMENT_THEORY":"SGP4","NORAD_CAT_ID":"46152","PERIAPSIS":"546.374","REF_FRAME":"TEME","LAUNCH_DATE":"2020-08-18","GP_ID":"223908592","RA_OF_ASC_NODE":"16.0304","DECAY_DATE":null,"MEAN_MOTION":"15.06397923","COUNTRY_CODE":"US","ELEMENT_SET_NO":"999","BSTAR":"0.00010261000000","OBJECT_NAME":"STARLINK-1634","TLE_LINE2":"2 46152  53.0551  16.0304 0001221  92.5803 267.5326 15.06397923134853","CENTER_NAME":"EARTH","REV_AT_EPOCH":"13485","OBJECT_TYPE":"PAYLOAD","EPOCH":"2023-01-28T18:02:43.811808","SITE":"AFETR","MEAN_MOTION_DOT":"0.00001247","ECCENTRICITY":"0.00012210","EPHEMERIS_TYPE":"0","FILE":"3764201"},{"LAUNCH_DATE":"2020-08-18","RA_OF_ASC_NODE":"357.9608","GP_ID":"223877794","MEAN_ANOMALY":"268.4630","ARG_OF_PERICENTER":"91.6540","MEAN_ELEMENT_THEORY":"SGP4","REF_FRAME":"TEME","PERIAPSIS":"546.105","NORAD_CAT_ID":"46153","RCS_SIZE":"LARGE","PERIOD":"95.592","SEMIMAJOR_AXIS":"6925.331","TIME_SYSTEM":"UTC","TLE_LINE1":"1 46153U 20057AN  23028.32342581  .00006060  00000-0  42529-3 0  9993","APOAPSIS":"548.288","MEAN_MOTION_DDOT":"0.0000000000000","INCLINATION":"53.0559","OBJECT_ID":"2020-057AN","CLASSIFICATION_TYPE":"U","MEAN_MOTION_DOT":"0.00006060","SITE":"AFETR","ECCENTRICITY":"0.00015760","EPHEMERIS_TYPE":"0","FILE":"3763924","OBJECT_NAME":"STARLINK-1636","CENTER_NAME":"EARTH","TLE_LINE2":"2 46153  53.0559 357.9608 0001576  91.6540 268.4630 15.06405680135069","OBJECT_TYPE":"PAYLOAD","REV_AT_EPOCH":"13506","EPOCH":"2023-01-28T07:45:43.989984","MEAN_MOTION":"15.06405680","DECAY_DATE":null,"COUNTRY_CODE":"US","ELEMENT_SET_NO":"999","BSTAR":"0.00042529000000"},{"ARG_OF_PERICENTER":"123.3412","MEAN_ANOMALY":"236.7719","MEAN_ELEMENT_THEORY":"SGP4","NORAD_CAT_ID":"46154","PERIAPSIS":"546.208","REF_FRAME":"TEME","LAUNCH_DATE":"2020-08-18","GP_ID":"223909589","RA_OF_ASC_NODE":"5.2344","APOAPSIS":"548.260","TLE_LINE1":"1 46154U 20057AP  23028.93068743  .00000706  00000-0  66331-4 0  9995","MEAN_MOTION_DDOT":"0.0000000000000","INCLINATION":"53.0563","OBJECT_ID":"2020-057AP","CLASSIFICATION_TYPE":"U","PERIOD":"95.593","RCS_SIZE":"LARGE","TIME_SYSTEM":"UTC","SEMIMAJOR_AXIS":"6925.369","OBJECT_NAME":"STARLINK-1642","CENTER_NAME":"EARTH","TLE_LINE2":"2 46154  53.0563   5.2344 0001481 123.3412 236.7719 15.06393368135022","REV_AT_EPOCH":"13502","OBJECT_TYPE":"PAYLOAD","EPOCH":"2023-01-28T22:20:11.393952","SITE":"AFETR","MEAN_MOTION_DOT":"0.00000706","ECCENTRICITY":"0.00014810","EPHEMERIS_TYPE":"0","FILE":"3764201","DECAY_DATE":null,"MEAN_MOTION":"15.06393368","COUNTRY_CODE":"US","ELEMENT_SET_NO":"999","BSTAR":"0.00006633100000"},{"PERIOD":"95.592","RCS_SIZE":"LARGE","TIME_SYSTEM":"UTC","SEMIMAJOR_AXIS":"6925.359","INCLINATION":"53.0534","OBJECT_ID":"2020-057AQ","CLASSIFICATION_TYPE":"U","APOAPSIS":"548.196","TLE_LINE1":"1 46155U 20057AQ  23028.29209593 -.00000526  00000-0 -16407-4 0  9996","MEAN_MOTION_DDOT":"0.0000000000000","GP_ID":"223876295","RA_OF_ASC_NODE":"338.1153","LAUNCH_DATE":"2020-08-18","MEAN_ELEMENT_THEORY":"SGP4","NORAD_CAT_ID":"46155","REF_FRAME":"TEME","PERIAPSIS":"546.253","ARG_OF_PERICENTER":"98.8732","MEAN_ANOMALY":"261.2416","COUNTRY_CODE":"US","ELEMENT_SET_NO":"999","BSTAR":"-0.00001640700000","DECAY_DATE":null,"MEAN_MOTION":"15.06396514","ECCENTRICITY":"0.00014030","FILE":"3763924","EPHEMERIS_TYPE":"0","SITE":"AFETR","MEAN_MOTION_DOT":"-0.00000526","REV_AT_EPOCH":"13658","OBJECT_TYPE":"PAYLOAD","EPOCH":"2023-01-28T07:00:37.088352","OBJECT_NAME":"STARLINK-1667","TLE_LINE2":"2 46155  53.0534 338.1153 0001403  98.8732 261.2416 15.06396514136587","CENTER_NAME":"EARTH"},{"BSTAR":"0.00047471000000","COUNTRY_CODE":"US","ELEMENT_SET_NO":"999","DECAY_DATE":null,"MEAN_MOTION":"15.06406429","EPHEMERIS_TYPE":"0","FILE":"3764201","ECCENTRICITY":"0.00013570","SITE":"AFETR","MEAN_MOTION_DOT":"0.00006798","EPOCH":"2023-01-28T22:42:45.696672","REV_AT_EPOCH":"13641","OBJECT_TYPE":"PAYLOAD","CENTER_NAME":"EARTH","TLE_LINE2":"2 46156  53.0528 355.1732 0001357  97.7486 262.3657 15.06406429136413","OBJECT_NAME":"STARLINK-1545","TIME_SYSTEM":"UTC","SEMIMAJOR_AXIS":"6925.329","PERIOD":"95.592","RCS_SIZE":"LARGE","CLASSIFICATION_TYPE":"U","OBJECT_ID":"2020-057AR","INCLINATION":"53.0528","MEAN_MOTION_DDOT":"0.0000000000000","APOAPSIS":"548.134","TLE_LINE1":"1 46156U 20057AR  23028.94636223  .00006798  00000-0  47471-3 0  9992","GP_ID":"223908093","RA_OF_ASC_NODE":"355.1732","LAUNCH_DATE":"2020-08-18","NORAD_CAT_ID":"46156","REF_FRAME":"TEME","PERIAPSIS":"546.254","MEAN_ELEMENT_THEORY":"SGP4","ARG_OF_PERICENTER":"97.7486","MEAN_ANOMALY":"262.3657"},{"SITE":"AFETR","MEAN_MOTION_DOT":"0.00008016","FILE":"3763924","EPHEMERIS_TYPE":"0","ECCENTRICITY":"0.00018150","CENTER_NAME":"EARTH","TLE_LINE2":"2 46157  53.0540 338.2078 0001815  96.1482 263.9714 15.06407751135342","OBJECT_NAME":"STARLINK-1587","EPOCH":"2023-01-28T06:28:46.449984","REV_AT_EPOCH":"13534","OBJECT_TYPE":"PAYLOAD","DECAY_DATE":null,"MEAN_MOTION":"15.06407751","BSTAR":"0.00055632000000","COUNTRY_CODE":"US","ELEMENT_SET_NO":"999","LAUNCH_DATE":"2020-08-18","GP_ID":"223877295","RA_OF_ASC_NODE":"338.2078","MEAN_ANOMALY":"263.9714","ARG_OF_PERICENTER":"96.1482","NORAD_CAT_ID":"46157","PERIAPSIS":"545.933","REF_FRAME":"TEME","MEAN_ELEMENT_THEORY":"SGP4","TIME_SYSTEM":"UTC","SEMIMAJOR_AXIS":"6925.325","PERIOD":"95.592","RCS_SIZE":"LARGE","MEAN_MOTION_DDOT":"0.0000000000000","TLE_LINE1":"1 46157U 20057AS  23028.26998206  .00008016  00000-0  55632-3 0  9993","APOAPSIS":"548.447","OBJECT_ID":"2020-057AS","CLASSIFICATION_TYPE":"U","INCLINATION":"53.0540"},{"EPHEMERIS_TYPE":"0","FILE":"3763924","ECCENTRICITY":"0.00016970","MEAN_MOTION_DOT":"0.00009582","SITE":"AFETR","EPOCH":"2023-01-28T06:23:27.951936","OBJECT_TYPE":"PAYLOAD","REV_AT_EPOCH":"13660","CENTER_NAME":"EARTH","TLE_LINE2":"2 46158  53.0551 338.2227 0001697  91.9169 268.2014 15.06406058136604","OBJECT_NAME":"STARLINK-1589","BSTAR":"0.00066116000000","COUNTRY_CODE":"US","ELEMENT_SET_NO":"999","MEAN_MOTION":"15.06406058","DECAY_DATE":null,"RA_OF_ASC_NODE":"338.2227","GP_ID":"223876545","LAUNCH_DATE":"2020-08-18","PERIAPSIS":"546.020","REF_FRAME":"TEME","NORAD_CAT_ID":"46158","MEAN_ELEMENT_THEORY":"SGP4","MEAN_ANOMALY":"268.2014","ARG_OF_PERICENTER":"91.9169","SEMIMAJOR_AXIS":"6925.330","TIME_SYSTEM":"UTC","RCS_SIZE":"LARGE","PERIOD":"95.592","OBJECT_ID":"2020-057AT","CLASSIFICATION_TYPE":"U","INCLINATION":"53.0551","MEAN_MOTION_DDOT":"0.0000000000000","APOAPSIS":"548.370","TLE_LINE1":"1 46158U 20057AT  23028.26629574  .00009582  00000-0  66116-3 0  9991"},{"EPOCH":"2023-01-28T08:57:24.277824","OBJECT_TYPE":"PAYLOAD","REV_AT_EPOCH":"13545","TLE_LINE2":"2 46159  53.0540  17.7465 0001467  84.4737 275.6419 15.06417802135451","CENTER_NAME":"EARTH","OBJECT_NAME":"STARLINK-1595","EPHEMERIS_TYPE":"0","FILE":"3763949","ECCENTRICITY":"0.00014670","MEAN_MOTION_DOT":"0.00012848","SITE":"AFETR","BSTAR":"0.00087942000000","ELEMENT_SET_NO":"999","COUNTRY_CODE":"US","MEAN_MOTION":"15.06417802","DECAY_DATE":null,"PERIAPSIS":"546.143","REF_FRAME":"TEME","NORAD_CAT_ID":"46159","MEAN_ELEMENT_THEORY":"SGP4","ARG_OF_PERICENTER":"84.4737","MEAN_ANOMALY":"275.6419","RA_OF_ASC_NODE":"17.7465","GP_ID":"223884045","LAUNCH_DATE":"2020-08-18","CLASSIFICATION_TYPE":"U","OBJECT_ID":"2020-057AU","INCLINATION":"53.0540","MEAN_MOTION_DDOT":"0.0000000000000","TLE_LINE1":"1 46159U 20057AU  23028.37319766  .00012848  00000-0  87942-3 0  9992","APOAPSIS":"548.175","SEMIMAJOR_AXIS":"6925.294","TIME_SYSTEM":"UTC","RCS_SIZE":"LARGE","PERIOD":"95.591"},{"ELEMENT_SET_NO":"999","COUNTRY_CODE":"US","BSTAR":"0.00026457000000","DECAY_DATE":null,"MEAN_MOTION":"15.06405344","REV_AT_EPOCH":"13632","OBJECT_TYPE":"PAYLOAD","EPOCH":"2023-01-28T08:44:07.127232","OBJECT_NAME":"STARLINK-1598","TLE_LINE2":"2 46160  53.0551 357.7861 0001490  86.9548 273.1611 15.06405344136327","CENTER_NAME":"EARTH","ECCENTRICITY":"0.00014900","EPHEMERIS_TYPE":"0","FILE":"3763924","SITE":"AFETR","MEAN_MOTION_DOT":"0.00003662","INCLINATION":"53.0551","CLASSIFICATION_TYPE":"U","OBJECT_ID":"2020-057AV","TLE_LINE1":"1 46160U 20057AV  23028.36397138  .00003662  00000-0  26457-3 0  9990","APOAPSIS":"548.229","MEAN_MOTION_DDOT":"0.0000000000000","PERIOD":"95.592","RCS_SIZE":"LARGE","TIME_SYSTEM":"UTC","SEMIMAJOR_AXIS":"6925.332","MEAN_ELEMENT_THEORY":"SGP4","NORAD_CAT_ID":"46160","REF_FRAME":"TEME","PERIAPSIS":"546.165","ARG_OF_PERICENTER":"86.9548","MEAN_ANOMALY":"273.1611","GP_ID":"223877046","RA_OF_ASC_NODE":"357.7861","LAUNCH_DATE":"2020-08-18"},{"CLASSIFICATION_TYPE":"U","OBJECT_ID":"2020-057AW","INCLINATION":"53.0543","MEAN_MOTION_DDOT":"0.0000000000000","TLE_LINE1":"1 46161U 20057AW  23028.27550859  .00005505  00000-0  38810-3 0  9996","APOAPSIS":"547.994","SEMIMAJOR_AXIS":"6925.324","TIME_SYSTEM":"UTC","RCS_SIZE":"LARGE","PERIOD":"95.592","REF_FRAME":"TEME","PERIAPSIS":"546.383","NORAD_CAT_ID":"46161","MEAN_ELEMENT_THEORY":"SGP4","MEAN_ANOMALY":"265.9180","ARG_OF_PERICENTER":"94.1942","RA_OF_ASC_NODE":"358.1825","GP_ID":"223877795","LAUNCH_DATE":"2020-08-18","BSTAR":"0.00038810000000","ELEMENT_SET_NO":"999","COUNTRY_CODE":"US","MEAN_MOTION":"15.06408114","DECAY_DATE":null,"EPOCH":"2023-01-28T06:36:43.942176","OBJECT_TYPE":"PAYLOAD","REV_AT_EPOCH":"13631","TLE_LINE2":"2 46161  53.0543 358.1825 0001163  94.1942 265.9180 15.06408114136317","CENTER_NAME":"EARTH","OBJECT_NAME":"STARLINK-1600","FILE":"3763924","EPHEMERIS_TYPE":"0","ECCENTRICITY":"0.00011630","MEAN_MOTION_DOT":"0.00005505","SITE":"AFETR"}];
